{"type": "FeatureCollection", "features": [ {"type": "Feature", "properties": {"norad_id": 33867, "name": "IRIDIUM 33 DEB", "group": "iridium-33-debris", "lat": -82.67989538414422, "lon": -35.291686869615475, "alt_km": 417.5796330020621, "timestamp": "2025-12-04T09:47:37.904721+00:00", "meta": {"OBJECT_NAME": "IRIDIUM 33 DEB", "OBJECT_ID": "1997-051AL", "EPOCH": "2025-12-04T00:53:10.204224", "MEAN_MOTION": 15.54633493, "ECCENTRICITY": 0.0012389, "INCLINATION": 86.3627, "RA_OF_ASC_NODE": 354.5807, "ARG_OF_PERICENTER": 97.6739, "MEAN_ANOMALY": 262.5931, "EPHEMERIS_TYPE": 0, "CLASSIFICATION_TYPE": "U", "NORAD_CAT_ID": 33867, "ELEMENT_SET_NO": 999, "REV_AT_EPOCH": 89375, "BSTAR": 0.010164, "MEAN_MOTION_DOT": 0.00736718, "MEAN_MOTION_DDOT": 0}, "tle": {"line1": "1 33867U 97051AL  25338.03692366  .00736718  00000+0  10164-1 0  9999", "line2": "2 33867  86.3627 354.5807 0012389  97.6739 262.5931 15.54633493893750"}}, "geometry": {"type": "Point", "coordinates": [-35.291686869615475, -82.67989538414422]}}, {"type": "Feature", "properties": {"norad_id": 33870, "name": "IRIDIUM 33 DEB", "group": "iridium-33-debris", "lat": -8.196920921507898, "lon": -117.64500671691543, "alt_km": 729.6420305646243, "timestamp": "2025-12-04T09:47:37.904732+00:00", "meta": {"OBJECT_NAME": "IRIDIUM 33 DEB", "OBJECT_ID": "1997-051AP", "EPOCH": "2025-12-03T16:55:20.809344", "MEAN_MOTION": 14.45765696, "ECCENTRICITY": 0.00205196, "INCLINATION": 86.3759, "RA_OF_ASC_NODE": 62.133, "ARG_OF_PERICENTER": 208.1182, "MEAN_ANOMALY": 283.557, "EPHEMERIS_TYPE": 0, "CLASSIFICATION_TYPE": "U", "NORAD_CAT_ID": 33870, "ELEMENT_SET_NO": 999, "REV_AT_EPOCH": 88006, "BSTAR": 0.0013399091, "MEAN_MOTION_DOT": 4.78e-05, "MEAN_MOTION_DDOT": 0}, "tle": {"line1": "1 33870U 97051AP  25337.70510196  .00004780  00000+0  13399-2 0  9997", "line2": "2 33870  86.3759  62.1330 0020519 208.1182 283.5570 14.45765696880060"}}, "geometry": {"type": "Point", "coordinates": [-117.64500671691543, -8.196920921507898]}}, {"type": "Feature", "properties": {"norad_id": 33881, "name": "IRIDIUM 33 DEB", "group": "iridium-33-debris", "lat": 82.0190349642442, "lon": -96.42924178887992, "alt_km": 708.2921001756758, "timestamp": "2025-12-04T09:47:37.904742+00:00", "meta": {"OBJECT_NAME": "IRIDIUM 33 DEB", "OBJECT_ID": "1997-051BA", "EPOCH": "2025-12-03T08:52:49.327968", "MEAN_MOTION": 14.56290168, "ECCENTRICITY": 0.0061157, "INCLINATION": 86.3865, "RA_OF_ASC_NODE": 110.812, "ARG_OF_PERICENTER": 205.0667, "MEAN_ANOMALY": 213.9917, "EPHEMERIS_TYPE": 0, "CLASSIFICATION_TYPE": "U", "NORAD_CAT_ID": 33881, "ELEMENT_SET_NO": 999, "REV_AT_EPOCH": 87364, "BSTAR": 0.002603, "MEAN_MOTION_DOT": 0.00011848, "MEAN_MOTION_DDOT": 0}, "tle": {"line1": "1 33881U 97051BA  25337.37001537  .00011848  00000+0  26030-2 0  9995", "line2": "2 33881  86.3865 110.8120 0061157 205.0667 213.9917 14.56290168873642"}}, "geometry": {"type": "Point", "coordinates": [-96.42924178887992, 82.0190349642442]}}, {"type": "Feature", "properties": {"norad_id": 33884, "name": "IRIDIUM 33 DEB", "group": "iridium-33-debris", "lat": 39.756391715481406, "lon": -169.44813011355137, "alt_km": 641.4229913136551, "timestamp": "2025-12-04T09:47:37.904752+00:00", "meta": {"OBJECT_NAME": "IRIDIUM 33 DEB", "OBJECT_ID": "1997-051BD", "EPOCH": "2025-12-04T02:54:00.283968", "MEAN_MOTION": 14.77168398, "ECCENTRICITY": 0.0010613, "INCLINATION": 86.3697, "RA_OF_ASC_NODE": 13.7089, "ARG_OF_PERICENTER": 355.5376, "MEAN_ANOMALY": 57.9595, "EPHEMERIS_TYPE": 0, "CLASSIFICATION_TYPE": "U", "NORAD_CAT_ID": 33884, "ELEMENT_SET_NO": 999, "REV_AT_EPOCH": 88720, "BSTAR": 0.0029953, "MEAN_MOTION_DOT": 0.00021274, "MEAN_MOTION_DDOT": 0}, "tle": {"line1": "1 33884U 97051BD  25338.12083662  .00021274  00000+0  29953-2 0  9992", "line2": "2 33884  86.3697  13.7089 0010613 355.5376  57.9595 14.77168398887209"}}, "geometry": {"type": "Point", "coordinates": [-169.44813011355137, 39.756391715481406]}}, {"type": "Feature", "properties": {"norad_id": 33886, "name": "IRIDIUM 33 DEB", "group": "iridium-33-debris", "lat": -41.363941121543135, "lon": -106.07231698294507, "alt_km": 773.0326656286197, "timestamp": "2025-12-04T09:47:37.904762+00:00", "meta": {"OBJECT_NAME": "IRIDIUM 33 DEB", "OBJECT_ID": "1997-051BF", "EPOCH": "2025-12-04T01:12:42.454368", "MEAN_MOTION": 14.36035454, "ECCENTRICITY": 0.0012064, "INCLINATION": 86.3832, "RA_OF_ASC_NODE": 70.8856, "ARG_OF_PERICENTER": 275.1243, "MEAN_ANOMALY": 258.9006, "EPHEMERIS_TYPE": 0, "CLASSIFICATION_TYPE": "U", "NORAD_CAT_ID": 33886, "ELEMENT_SET_NO": 999, "REV_AT_EPOCH": 87927, "BSTAR": 0.00039445, "MEAN_MOTION_DOT": 1.166e-05, "MEAN_MOTION_DDOT": 0}, "tle": {"line1": "1 33886U 97051BF  25338.05049137  .00001166  00000+0  39445-3 0  9991", "line2": "2 33886  86.3832  70.8856 0012064 275.1243 258.9006 14.36035454879279"}}, "geometry": {"type": "Point", "coordinates": [-106.07231698294507, -41.363941121543135]}}, {"type": "Feature", "properties": {"norad_id": 33887, "name": "IRIDIUM 33 DEB", "group": "iridium-33-debris", "lat": 57.14894293180588, "lon": -178.76070809018225, "alt_km": 764.6749513144723, "timestamp": "2025-12-04T09:47:37.904773+00:00", "meta": {"OBJECT_NAME": "IRIDIUM 33 DEB", "OBJECT_ID": "1997-051BG", "EPOCH": "2025-12-04T02:49:23.956032", "MEAN_MOTION": 14.37209414, "ECCENTRICITY": 0.0004037, "INCLINATION": 86.3051, "RA_OF_ASC_NODE": 7.1078, "ARG_OF_PERICENTER": 267.9412, "MEAN_ANOMALY": 152.9243, "EPHEMERIS_TYPE": 0, "CLASSIFICATION_TYPE": "U", "NORAD_CAT_ID": 33887, "ELEMENT_SET_NO": 999, "REV_AT_EPOCH": 88041, "BSTAR": 0.00026792, "MEAN_MOTION_DOT": 8.17e-06, "MEAN_MOTION_DDOT": 0}, "tle": {"line1": "1 33887U 97051BG  25338.11763838  .00000817  00000+0  26792-3 0  9993", "line2": "2 33887  86.3051   7.1078 0004037 267.9412 152.9243 14.37209414880414"}}, "geometry": {"type": "Point", "coordinates": [-178.76070809018225, 57.14894293180588]}}, {"type": "Feature", "properties": {"norad_id": 33953, "name": "IRIDIUM 33 DEB", "group": "iridium-33-debris", "lat": 22.007250682158904, "lon": -124.06904964267972, "alt_km": 697.2962815472365, "timestamp": "2025-12-04T09:47:37.904783+00:00", "meta": {"OBJECT_NAME": "IRIDIUM 33 DEB", "OBJECT_ID": "1997-051BN", "EPOCH": "2025-12-03T05:09:00.715968", "MEAN_MOTION": 14.55157442, "ECCENTRICITY": 0.0018449, "INCLINATION": 86.3853, "RA_OF_ASC_NODE": 57.9126, "ARG_OF_PERICENTER": 131.9522, "MEAN_ANOMALY": 257.615, "EPHEMERIS_TYPE": 0, "CLASSIFICATION_TYPE": "U", "NORAD_CAT_ID": 33953, "ELEMENT_SET_NO": 999, "REV_AT_EPOCH": 88165, "BSTAR": 0.0017324, "MEAN_MOTION_DOT": 7.523e-05, "MEAN_MOTION_DDOT": 0}, "tle": {"line1": "1 33953U 97051BN  25337.21459162  .00007523  00000+0  17324-2 0  9990", "line2": "2 33953  86.3853  57.9126 0018449 131.9522 257.6150 14.55157442881659"}}, "geometry": {"type": "Point", "coordinates": [-124.06904964267972, 22.007250682158904]}}, {"type": "Feature", "properties": {"norad_id": 33960, "name": "IRIDIUM 33 DEB", "group": "iridium-33-debris", "lat": 23.990266112580308, "lon": 111.76858205709246, "alt_km": 614.1965444069092, "timestamp": "2025-12-04T09:47:37.904794+00:00", "meta": {"OBJECT_NAME": "IRIDIUM 33 DEB", "OBJECT_ID": "1997-051BV", "EPOCH": "2025-12-03T22:02:56.046336", "MEAN_MOTION": 14.84433668, "ECCENTRICITY": 0.00070383, "INCLINATION": 86.253, "RA_OF_ASC_NODE": 293.6703, "ARG_OF_PERICENTER": 74.2098, "MEAN_ANOMALY": 348.0492, "EPHEMERIS_TYPE": 0, "CLASSIFICATION_TYPE": "U", "NORAD_CAT_ID": 33960, "ELEMENT_SET_NO": 999, "REV_AT_EPOCH": 88736, "BSTAR": 0.0061170457, "MEAN_MOTION_DOT": 0.00051818, "MEAN_MOTION_DDOT": 0}, "tle": {"line1": "1 33960U 97051BV  25337.91870424  .00051818  00000+0  61170-2 0  9997", "line2": "2 33960  86.2530 293.6703 0007038  74.2098 348.0492 14.84433668887364"}}, "geometry": {"type": "Point", "coordinates": [111.76858205709246, 23.990266112580308]}}, {"type": "Feature", "properties": {"norad_id": 33966, "name": "IRIDIUM 33 DEB", "group": "iridium-33-debris", "lat": 84.45627950290483, "lon": -170.9288584451865, "alt_km": 722.2887092574401, "timestamp": "2025-12-04T09:47:37.904804+00:00", "meta": {"OBJECT_NAME": "IRIDIUM 33 DEB", "OBJECT_ID": "1997-051CB", "EPOCH": "2025-12-03T17:20:32.441280", "MEAN_MOTION": 14.49530471, "ECCENTRICITY": 0.00064145, "INCLINATION": 86.3932, "RA_OF_ASC_NODE": 49.8963, "ARG_OF_PERICENTER": 220.7133, "MEAN_ANOMALY": 258.7908, "EPHEMERIS_TYPE": 0, "CLASSIFICATION_TYPE": "U", "NORAD_CAT_ID": 33966, "ELEMENT_SET_NO": 999, "REV_AT_EPOCH": 88311, "BSTAR": 0.00091882532, "MEAN_MOTION_DOT": 3.542e-05, "MEAN_MOTION_DDOT": 0}, "tle": {"line1": "1 33966U 97051CB  25337.72259770  .00003542  00000+0  91883-3 0  9993", "line2": "2 33966  86.3932  49.8963 0006414 220.7133 258.7908 14.49530471883110"}}, "geometry": {"type": "Point", "coordinates": [-170.9288584451865, 84.45627950290483]}}, {"type": "Feature", "properties": {"norad_id": 34071, "name": "IRIDIUM 33 DEB", "group": "iridium-33-debris", "lat": 15.22790035331445, "lon": -159.5468242781591, "alt_km": 722.926312107079, "timestamp": "2025-12-04T09:47:37.904814+00:00", "meta": {"OBJECT_NAME": "IRIDIUM 33 DEB", "OBJECT_ID": "1997-051CE", "EPOCH": "2025-12-04T02:24:35.019648", "MEAN_MOTION": 14.49404394, "ECCENTRICITY": 0.0009494, "INCLINATION": 86.3465, "RA_OF_ASC_NODE": 21.5834, "ARG_OF_PERICENTER": 130.9901, "MEAN_ANOMALY": 229.2125, "EPHEMERIS_TYPE": 0, "CLASSIFICATION_TYPE": "U", "NORAD_CAT_ID": 34071, "ELEMENT_SET_NO": 999, "REV_AT_EPOCH": 88209, "BSTAR": 0.0012417, "MEAN_MOTION_DOT": 4.769e-05, "MEAN_MOTION_DDOT": 0}, "tle": {"line1": "1 34071U 97051CE  25338.10040532  .00004769  00000+0  12417-2 0  9995", "line2": "2 34071  86.3465  21.5834 0009494 130.9901 229.2125 14.49404394882093"}}, "geometry": {"type": "Point", "coordinates": [-159.5468242781591, 15.22790035331445]}}]}